OBJECT_NAME,OBJECT_ID,EPOCH,MEAN_MOTION,ECCENTRICITY,INCLINATION,RA_OF_ASC_NODE,ARG_OF_PERICENTER,MEAN_ANOMALY,EPHEMERIS_TYPE,CLASSIFICATION_TYPE,NORAD_CAT_ID,ELEMENT_SET_NO,REV_AT_EPOCH,BSTAR,MEAN_MOTION_DOT,MEAN_MOTION_DDOT
SL-14 R/B,1990-018B,2026-06-15T11:00:32.129280,14.82215056,.0017345,82.5210,131.7232,126.9928,233.2877,0,U,20511,999,93706,.37117E-4,.32E-5,0
HST,1990-037B,2026-06-15T02:55:52.021632,15.30726834,.00018775,28.4718,94.6872,120.6716,239.4066,0,U,20580,999,78825,.18362174E-3,.5845E-4,0
SL-16 R/B,1990-046B,2026-06-15T06:02:16.615680,14.15025889,.0013473,70.9997,93.0133,164.6555,195.4979,0,U,20625,999,86219,.12113E-3,.187E-5,0
COSMOS 2084,1990-055A,2026-06-14T22:29:05.593056,15.06107862,.000555,62.7909,3.7719,275.4979,84.5489,0,U,20663,999,95096,.1433E-3,.1904E-4,0
SL-6 R/B(2),1990-055D,2026-06-15T12:28:57.435744,15.03998297,.0040382,62.7824,281.0493,4.8965,355.2521,0,U,20666,999,95290,.11099E-3,.1359E-4,0
SL-8 R/B,1990-078B,2026-06-15T10:50:28.088736,14.92249020,.0351383,82.9002,163.2126,44.3117,318.5661,0,U,20775,999,82386,.50005E-3,.17759E-3,0
SL-8 R/B,1991-006B,2026-06-15T13:27:04.136256,13.77505741,.0023624,82.9424,97.2438,118.8787,53.8409,0,U,21088,999,77754,.30573E-4,.46E-6,0
OKEAN-3,1991-039A,2026-06-15T06:39:26.032896,15.05315163,.0014247,82.5158,242.2329,5.2473,354.8900,0,U,21397,999,87971,.15503E-3,.225E-4,0
COSMOS 2151,1991-042A,2026-06-15T12:37:15.891168,15.00434020,.0013835,82.4960,349.2844,88.9452,271.3357,0,U,21422,999,87786,.119E-3,.1526E-4,0
SL-14 R/B,1991-042B,2026-06-15T09:32:10.730688,14.81901450,.0015458,82.4927,128.5740,281.3732,78.5745,0,U,21423,999,86754,.3584E-4,.307E-5,0
ERS-1,1991-050A,2026-06-15T11:55:08.925312,14.39517155,.0030711,98.7798,187.1533,272.1655,87.6016,0,U,21574,999,82980,.11139E-3,.302E-5,0
ARIANE 40 R/B,1991-050F,2026-06-15T02:34:41.882016,14.42955960,.00041768,98.1876,214.6053,125.8001,234.3579,0,U,21610,999,83304,.85944038E-4,.246E-5,0
INTERCOSMOS 25,1991-086A,2026-06-14T11:17:45.095712,12.12192313,.14841129,82.6052,251.4538,268.2589,74.8557,0,U,21819,999,50841,.11849233E-3,.594E-5,0
SL-8 R/B,1992-008B,2026-06-15T12:51:44.491104,13.75976484,.0033729,82.9263,195.0153,219.4182,250.4958,0,U,21876,999,72287,.12594E-3,.138E-5,0
SL-8 R/B,1992-020B,2026-06-15T13:10:45.814368,13.75548652,.0029832,82.9306,81.0740,27.0551,145.9349,0,U,21938,999,71458,.50641E-4,.64E-6,0
USA 81,1992-023A,2026-06-15T11:00:21.947040,14.32397757,.0002766,85.0076,75.0051,86.0909,274.0600,0,U,21949,999,10878,.48319E-4,.151E-5,0
COSMOS 2219,1992-076A,2026-06-15T10:07:56.466912,14.14097903,.0016516,71.0577,173.7616,47.0235,313.2269,0,U,22219,999,73219,.14591E-3,.231E-5,0
SL-16 R/B,1992-076B,2026-06-15T13:06:57.556800,14.16871636,.0014623,71.0004,342.2374,300.7865,116.1695,0,U,22220,999,73569,.83765E-4,.12E-5,0
COSMOS 2221,1992-080A,2026-06-15T12:49:23.603808,14.96529468,.0013144,82.5031,185.3482,218.1326,141.8967,0,U,22236,999,79542,.10696E-3,.1243E-4,0
SL-16 R/B,1992-093B,2026-06-15T09:43:14.948832,14.15462072,.0004067,71.0198,159.1328,191.5261,168.5769,0,U,22285,999,72698,-.13177E-3,-.305E-5,0
COSMOS 2228,1992-094A,2026-06-15T11:37:06.603744,14.97581103,.0017051,82.5174,143.6741,338.3105,21.7393,0,U,22286,999,79069,.15327E-3,.182E-4,0
SL-16 R/B,1993-016B,2026-06-14T23:03:39.320928,14.15312862,.00103558,71.0084,10.8837,186.6267,173.4721,0,U,22566,999,71593,.19242597E-3,.327E-5,0
COSMOS 2242,1993-024A,2026-06-15T10:37:35.473152,14.96898533,.0015514,82.5180,173.2118,342.4446,17.6238,0,U,22626,999,79501,.12477E-3,.1461E-4,0
SL-16 R/B,1993-059B,2026-06-15T10:38:02.501664,14.17248127,.0015158,70.9887,164.9817,56.9481,303.3096,0,U,22803,999,69338,.50832E-4,.55E-6,0
ARIANE 40 R/B,1993-061H,2026-06-15T04:19:44.816448,14.32907143,.00105855,98.4819,233.0790,2.3147,357.8084,0,U,22830,999,70806,.73702449E-4,.158E-5,0
COSMOS 2278,1994-023A,2026-06-15T13:11:22.864416,14.14397682,.0010607,71.0549,330.3512,245.1615,114.8405,0,U,23087,999,65864,.10252E-3,.149E-5,0
SL-16 R/B,1994-023B,2026-06-15T11:33:10.925280,14.15024244,.0002885,70.9994,225.5137,187.8481,172.2597,0,U,23088,999,65992,.18726E-3,.315E-5,0
SL-16 R/B,1994-074B,2026-06-15T12:50:59.780832,14.79501090,.000509,97.6992,193.3252,260.6500,220.4125,0,U,23343,999,70171,.52408E-4,.343E-5,0
SL-16 R/B,1994-077B,2026-06-15T08:29:57.321024,14.15571762,.0002846,70.9808,147.0187,329.2012,30.8943,0,U,23405,999,63005,.19916E-4,-.9E-7,0
ARIANE 40+ R/B,1995-021B,2026-06-15T04:14:29.642208,14.39832278,.00063132,98.4411,236.2806,199.8513,214.4832,0,U,23561,999,63327,.83276081E-4,.218E-5,0
SL-16 R/B,1995-058B,2026-06-15T12:10:20.002944,14.15507499,.0013678,71.0219,334.8857,322.8305,37.1870,0,U,23705,999,58169,.16272E-3,.271E-5,0
